XRISM                   
1 57800U 23137A   26079.53628990  .00005288  00000+0  29799-3 0  9993
2 57800  31.0012 213.4982 0007954 148.3145 211.7973 15.11613730139437
ACS3                    
1 59588U 24077B   26079.58460259  .00019961  00000+0  15848-1 0  9990
2 59588  97.2014  18.2485 0068905  51.1163 309.6120 13.90076641 95713
SZ-21 MODULE            
1 66515U 25246C   26079.19410922  .00026007  00000+0  21818-3 0  9991
2 66515  41.4734 138.6579 0000376 257.1443 102.9357 15.69318212 19723
